{
  "norad_id": 53716,
  "name": "STARLINK-4699",
  "history": [
    {
      "epoch": "2026-03-28T14:30:34.887744",
      "apogee_km": 540.7831581016435,
      "perigee_km": 538.7091767280526,
      "latitude_deg": -34.59355352314154,
      "longitude_deg": -30.36123584001325,
      "semi_major_axis_km": 6917.883167414848,
      "eccentricity": 0.0001499,
      "inclination_deg": 53.2154,
      "raan_deg": 168.8861,
      "arg_perigee_deg": 81.7372,
      "mean_anomaly_deg": 278.379,
      "mean_motion_rev_day": 15.08839091
    }
  ]
}